LUCH 5B                 
1 38977U 12061A   18021.82007284 -.00000129  00000-0  00000-0 0  9990
2 38977   3.9784  73.1190 0004681 241.0479  85.8672  1.00272987 19400
YAMAL 300K              
1 38978U 12061B   18021.90023897  .00000074  00000-0  00000-0 0  9996
2 38978   0.0158  73.9530 0001502 170.4609  23.8354  1.00269696 18871
STAR ONE C3             
1 38991U 12062A   18021.78518146 -.00000245  00000-0  00000-0 0  9995
2 38991   0.0364 263.2509 0002260  37.0880  28.3913  1.00273856 19006
EUTELSAT 21B            
1 38992U 12062B   18021.60417182  .00000133  00000-0  00000-0 0  9990
2 38992   0.0627  12.3697 0002148 295.3138  52.2828  1.00270193 19091
ECHOSTAR 16             
1 39008U 12065A   18020.83700957 -.00000279  00000-0  00000+0 0  9992
2 39008   0.0225  63.4340 0002164 234.2786  62.2654  1.00270206 19032
CHINASAT 12 (ZX 12)     
1 39017U 12067A   18021.94123650 -.00000204  00000-0  00000-0 0  9995
2 39017   0.0169  66.3301 0002676 234.2763 246.9708  1.00272862 18749
EUTELSAT 70B            
1 39020U 12069A   18021.46857039 -.00000040  00000-0  00000+0 0  9990
2 39020   0.0642 346.5776 0002968 303.3636  70.0125  1.00270604 18841
YAMAL 402               
1 39022U 12070A   18022.14487986  .00000089  00000-0  10000-3 0  9997
2 39022   0.0202  82.2725 0002519 223.8150 282.3935  1.00272568 18839
SKYNET 5D               
1 39034U 12075A   18022.13993052  .00000103  00000-0  00000+0 0  9992
2 39034   0.0708   0.2088 0004047 293.2036 291.1096  1.00270957 18754
MEXSAT 3                
1 39035U 12075B   18020.98465708 -.00000022  00000-0  00000-0 0  9998
2 39035   0.0236 108.8599 0002297 187.0592  64.0426  1.00272240 18419
TDRS 11                 
1 39070U 13004A   18021.05411640  .00000101  00000-0  00000-0 0  9992
2 39070   5.1021 328.5982 0011252 301.8358  58.2672  1.00266905 15922
AMAZONAS 3              
1 39078U 13006A   18021.83280930 -.00000279  00000-0  00000+0 0  9990
2 39078   0.0517 235.4969 0004046  25.4881  98.9550  1.00273141 18208
AZERSPACE 1             
1 39079U 13006B   18021.53652100  .00000137  00000-0  00000+0 0  9992
2 39079   0.0373 262.9193 0001842  62.0085  35.0458  1.00270050 18167
EUTELSAT 117 WEST A     
1 39122U 13012A   18020.99021039 -.00000009  00000-0  00000-0 0  9998
2 39122   0.0340 306.8370 0002972   2.9559  50.1662  1.00270775 17684
ANIK G1                 
1 39127U 13014A   18020.96386953 -.00000071  00000-0  00000+0 0  9999
2 39127   0.0380 258.3535 0002963  28.8491  72.7502  1.00271622 17482
CHINASAT 11 (ZX 11)     
1 39157U 13020A   18021.89004318 -.00000288  00000-0  00000-0 0  9995
2 39157   0.0369 236.7145 0003454  51.9832 250.9050  1.00270121 17381
EUTELSAT 7B             
1 39163U 13022A   18021.64451376  .00000051  00000-0  00000-0 0  9994
2 39163   0.0423 356.3837 0005210 343.2288  20.3524  1.00271203 17220
SES-6                   
1 39172U 13026A   18020.77885200 -.00000258  00000-0  00000+0 0  9997
2 39172   0.0272 340.4969 0001674 319.7105  59.7612  1.00271840 16958
IRNSS-1A                
1 39199U 13034A   18019.82441834  .00000087  00000-0  00000+0 0  9999
2 39199  29.1829 111.3105 0020729 184.7663 175.2002  1.00281139 16864
ALPHASAT                
1 39215U 13038A   18020.67445213  .00000140  00000-0  00000-0 0  9993
2 39215   1.8537  27.2570 0001898 270.6875  89.6783  1.00270886 16493
INSAT-3D                
1 39216U 13038B   18021.43659026 -.00000153  00000-0  00000-0 0  9993
2 39216   0.1268 270.3393 0001356  29.5090  60.1237  1.00273091 16354
EUTELSAT 25B            
1 39233U 13044A   18021.59328160  .00000147  00000-0  00000-0 0  9990
2 39233   0.0469  28.7083 0001806 287.0375  44.2255  1.00274363 15875
GSAT-7                  
1 39234U 13044B   18021.45891207 -.00000073  00000-0  00000+0 0  9991
2 39234   0.0718 262.8464 0005270  32.1755  64.9088  1.00271839 16135
AMOS-4                  
1 39237U 13045A   18021.48373425  .00000009  00000-0  00000-0 0  9994
2 39237   0.0150 106.6893 0002717 222.4635  30.8168  1.00274391 16196
ASTRA 2E                
1 39285U 13056A   18021.58501129  .00000154  00000-0  00000-0 0  9995
2 39285   0.0531  16.7355 0002459 288.6108  54.6165  1.00273156 15703
SIRIUS FM-6             
1 39360U 13058A   18020.98847983 -.00000013  00000-0  00000-0 0  9990
2 39360   0.0220 284.8550 0001393 247.7940 187.3384  1.00271589 15573
RADUGA-1M 3             
1 39375U 13062A   18022.46142984 -.00000035  00000-0  00000+0 0  9998
2 39375   0.0400 125.2393 0001775 194.5776  38.0516  1.00272983 15367
SES-8                   
1 39460U 13071A   18021.40076808 -.00000266  00000-0  00000+0 0  9993
2 39460   0.0429 260.1640 0000678  57.5688  42.2475  1.00271117 15109
INMARSAT 5-F1           
1 39476U 13073A   18022.48779715  .00000032  00000-0  00000+0 0  9998
2 39476   0.0192  64.7857 0000428 248.9366  46.2605  1.00271449 15177
TKSAT-1 (TUPAC KATARI)  
1 39481U 13075A   18022.51157088 -.00000191  00000-0  00000+0 0  9990
2 39481   0.0089 282.0284 0002533  35.2284 261.5117  1.00268679 15083
EXPRESS-AM5             
1 39487U 13077A   18022.23240454 -.00000276  00000-0  00000+0 0  9991
2 39487   0.0525 242.8694 0000721 207.1272 255.2124  1.00272402 15602
GSAT-14                 
1 39498U 14001A   18021.45894061 -.00000074  00000-0  00000-0 0  9990
2 39498   0.0392 117.4551 0001343 218.9535  23.5708  1.00272037 14683
THAICOM 6               
1 39500U 14002A   18021.93100998 -.00000117  00000-0  00000-0 0  9995
2 39500   0.0726 119.2322 0000397  70.2344 345.3658  1.00270251 14684
TDRS 12                 
1 39504U 14004A   18021.71153741 -.00000263  00000-0  00000+0 0  9992
2 39504   5.7339 335.9644 0005407 342.6443  17.5106  1.00265712 14689
ABS-2                   
1 39508U 14006A   18021.45637275 -.00000083  00000-0  00000-0 0  9999
2 39508   0.0263   4.9776 0003416 313.2455  41.7363  1.00271570 14550
ATHENA-FIDUS            
1 39509U 14006B   18021.55923560  .00000157  00000-0  00000-0 0  9997
2 39509   0.0139  49.2388 0000901 237.8883  72.8630  1.00271146 14311
TURKSAT 4A              
1 39522U 14007A   18021.54748777  .00000149  00000-0  00000-0 0  9998
2 39522   0.0575 262.9365 0004861  17.8978  79.0965  1.00272623 14231
EXPRESS-AT1             
1 39612U 14010A   18021.88623632  .00000082  00000-0  00000-0 0  9997
2 39612   0.0552 239.2865 0000107 251.2949   5.6280  1.00272502 14285
EXPRESS-AT2             
1 39613U 14010B   18021.95184826 -.00000278  00000-0  00000+0 0  9990
2 39613   0.0662 241.5857 0000679 200.5087 161.6426  1.00270445 14110
AMAZONAS 4A             
1 39616U 14011A   18021.86874854 -.00000249  00000-0  00000+0 0  9999
2 39616   0.0593  71.2161 0003471 262.3002  26.4519  1.00270966 14106
ASTRA 5B                
1 39617U 14011B   18022.47684824  .00000158  00000-0  00000+0 0  9992
2 39617   0.0395 330.2048 0003563 333.4152  21.2909  1.00273160 14102
IRNSS-1B                
1 39635U 14017A   18019.32706191  .00000094  00000-0  00000-0 0  9990
2 39635  28.6795 291.4742 0017849 185.9395 174.1253  1.00277303 14015
LUCH 5V                 
1 39727U 14023A   18021.79424299 -.00000262  00000-0  00000-0 0  9997
2 39727   2.2722 299.1168 0003831  23.8325 178.7028  1.00267289531758
KAZSAT-3                
1 39728U 14023B   18021.50190556  .00000064  00000-0  00000-0 0  9992
2 39728   0.0089  42.1539 0000347 304.3768  13.4541  1.00271871 11688
EUTELSAT 3B             
1 39773U 14030A   18022.49907019  .00000023  00000-0  00000+0 0  9993
2 39773   0.0625  33.5001 0002883 233.2664  37.7720  1.00270784 13451
ASIASAT 8               
1 40107U 14046A   18021.67473640 -.00000030  00000-0  00000-0 0  9990
2 40107   0.0115  67.7246 0001816 217.8614  74.3797  1.00271747 71383
ASIASAT 6               
1 40141U 14052A   18021.86816222 -.00000359  00000-0  00000-0 0  9997
2 40141   0.0331 247.5881 0000592 110.8539 195.1496  1.00269485 12291
OPTUS 10                
1 40146U 14054A   18022.20694202 -.00000071  00000-0  00000+0 0  9995
2 40146   0.0363  84.9632 0001487 214.4798  60.5284  1.00270779 12366
MEASAT-3B               
1 40147U 14054B   18021.41048325 -.00000238  00000-0  00000+0 0  9992
2 40147   0.0352 333.6443 0002498 352.0807  34.2445  1.00272775 12402
LUCH (OLYMP)            
1 40258U 14058A   18021.82410450  .00000150  00000-0  10000-3 0  9993
2 40258   0.0348 200.7681 0000969  62.7551 196.1934  1.00272442 12176
HIMAWARI-8              
1 40267U 14060A   18021.27430679 -.00000272  00000-0  00000+0 0  9991
2 40267   0.0069 357.0054 0001027 292.7854  70.1980  1.00271409 12098
IRNSS-1C                
1 40269U 14061A   18021.10338483 -.00000158  00000-0  00000+0 0  9999
2 40269   2.6265 240.6053 0021253   6.3628 353.6775  1.00273559 12047
INTELSAT 30 (IS-30)     
1 40271U 14062A   18019.52754247 -.00000148  00000-0  00000-0 0  9996
2 40271   0.0164  51.8879 0002396  79.5571  82.2665  1.00271632 11978
ARSAT 1                 
1 40272U 14062B   18022.54841022 -.00000256  00000-0  00000+0 0  9990
2 40272   0.0436 246.6017 0001298  45.9648 314.8902  1.00271294 12121
EXPRESS-AM6             
1 40277U 14064A   18021.90462591  .00000102  00000-0  00000-0 0  9996
2 40277   0.0141 192.3834 0000097 124.1895 183.2818  1.00269603 10823
GSAT-16                 
1 40332U 14078A   18021.51162245  .00000088  00000-0  00000+0 0  9995
2 40332   0.0806  99.2313 0002933 333.3405 287.4460  1.00273557 11499
DIRECTV 14              
1 40333U 14078B   18021.52545948 -.00000122  00000-0  00000-0 0  9993
2 40333   0.0432 248.5648 0000731 299.7632  22.4261  1.00270860 11474
YAMAL 401               
1 40345U 14082A   18021.89073759 -.00000224  00000-0  00000-0 0  9990
2 40345   0.0647 147.3595 0000770 232.5706 151.8427  1.00269376 11642
ASTRA 2G                
1 40364U 14089A   18021.58593266  .00000153  00000-0  00000-0 0  9994
2 40364   0.0254  14.0085 0002506   5.4698 340.5170  1.00273464 11204
